{
  "position": [
    {
      "contentId": 264570,
      "contentTypeId": 12,
      "areaCode": 1,
      "sigunguCode": 1,
      "mapx": 127.02816009521484,
      "mapy": 37.497047424316406,
      "title": "강남",
      "firstImage": "http://tong.visitkorea.or.kr/cms/resource/08/1984608_image2_1.jpg",
      "addr": "서울특별시 강남구 역삼동",
      "tel": "",
      "zipcode": "06232"
    },
    {
      "contentId": 2456536,
      "contentTypeId": 12,
      "areaCode": 1,
      "sigunguCode": 1,
      "mapx": 127.05913543701172,
      "mapy": 37.511810302734375,
      "title": "강남 마이스 관광특구",
      "firstImage": "",
      "addr": "서울특별시 강남구 영동대로 513",
      "tel": "",
      "zipcode": "06164"
    },
    {
      "contentId": 1949905,
      "contentTypeId": 12,
      "areaCode": 1,
      "sigunguCode": 1,
      "mapx": 127.02643585205078,
      "mapy": 37.5269889831543,
      "title": "강남 시티투어 (트롤리버스)",
      "firstImage": "http://tong.visitkorea.or.kr/cms/resource/75/1258175_image2_1.jpg",
      "addr": "서울특별시 강남구 압구정로 161",
      "tel": "",
      "zipcode": "06001"
    },
    {
      "contentId": 2937311,
      "contentTypeId": 12,
      "areaCode": 1,
      "sigunguCode": 1,
      "mapx": 127.03094482421875,
      "mapy": 37.515777587890625,
      "title": "네츄럴 스파 블랑",
      "firstImage": "",
      "addr": "서울특별시 강남구 논현로134길 9",
      "tel": "",
      "zipcode": "06052"
    },
    {
      "contentId": 1603149,
      "contentTypeId": 12,
      "areaCode": 1,
      "sigunguCode": 1,
      "mapx": 127.05260467529297,
      "mapy": 37.47172927856445,
      "title": "능인선원",
      "firstImage": "http://tong.visitkorea.or.kr/cms/resource/72/1567772_image2_1.jpg",
      "addr": "서울특별시 강남구 양재대로 340",
      "tel": "",
      "zipcode": "06357"
    },
    {
      "contentId": 1602451,
      "contentTypeId": 12,
      "areaCode": 1,
      "sigunguCode": 1,
      "mapx": 127.07508850097656,
      "mapy": 37.47758483886719,
      "title": "대모산공원",
      "firstImage": "http://tong.visitkorea.or.kr/cms/resource/51/1567751_image2_1.jpg",
      "addr": "서울특별시 강남구 광평로10길 30-71",
      "tel": "",
      "zipcode": "06359"
    },
    {
      "contentId": 2733970,
      "contentTypeId": 12,
      "areaCode": 1,
      "sigunguCode": 1,
      "mapx": 127.06356048583984,
      "mapy": 37.50163269042969,
      "title": "대치유수지체육공원",
      "firstImage": "http://tong.visitkorea.or.kr/cms/resource/90/2779090_image2_1.jpg",
      "addr": "서울특별시 강남구 역삼로90길 43",
      "tel": "",
      "zipcode": "06190"
    },
    {
      "contentId": 126486,
      "contentTypeId": 12,
      "areaCode": 1,
      "sigunguCode": 1,
      "mapx": 127.0338134765625,
      "mapy": 37.521461486816406,
      "title": "도산공원",
      "firstImage": "http://tong.visitkorea.or.kr/cms/resource/60/2678560_image2_1.jpg",
      "addr": "서울특별시 강남구 도산대로45길 20",
      "tel": "",
      "zipcode": "06020"
    },
    {
      "contentId": 2720441,
      "contentTypeId": 12,
      "areaCode": 1,
      "sigunguCode": 1,
      "mapx": 127.02733612060547,
      "mapy": 37.521942138671875,
      "title": "립바이 메이크업 스튜디오",
      "firstImage": "",
      "addr": "서울특별시 강남구 논현로155길 8",
      "tel": "",
      "zipcode": "06032"
    },
    {
      "contentId": 2752525,
      "contentTypeId": 12,
      "areaCode": 1,
      "sigunguCode": 1,
      "mapx": 127.08013916015625,
      "mapy": 37.49593734741211,
      "title": "마루공원",
      "firstImage": "",
      "addr": "서울특별시 강남구 개포로109길 74",
      "tel": "",
      "zipcode": "06334"
    },
    {
      "contentId": 2946528,
      "contentTypeId": 12,
      "areaCode": 1,
      "sigunguCode": 1,
      "mapx": 127.0339584350586,
      "mapy": 37.51674270629883,
      "title": "면역공방 블랙점",
      "firstImage": "http://tong.visitkorea.or.kr/cms/resource/19/2947019_image2_1.jpg",
      "addr": "서울특별시 강남구 논현동 83-15 JK빌딩",
      "tel": "",
      "zipcode": "06053"
    },
    {
      "contentId": 126504,
      "contentTypeId": 12,
      "areaCode": 1,
      "sigunguCode": 1,
      "mapx": 127.05774688720703,
      "mapy": 37.51587677001953,
      "title": "봉은사(서울)",
      "firstImage": "http://tong.visitkorea.or.kr/cms/resource/37/2652137_image2_1.jpg",
      "addr": "서울특별시 강남구 봉은사로 531",
      "tel": "",
      "zipcode": "06087"
    },
    {
      "contentId": 2782188,
      "contentTypeId": 12,
      "areaCode": 1,
      "sigunguCode": 1,
      "mapx": 127.04029846191406,
      "mapy": 37.49492645263672,
      "title": "불교총지종",
      "firstImage": "http://tong.visitkorea.or.kr/cms/resource/18/2782218_image2_1.jpg",
      "addr": "서울특별시 강남구 도곡로25길 35",
      "tel": "",
      "zipcode": "06227"
    },
    {
      "contentId": 1603100,
      "contentTypeId": 12,
      "areaCode": 1,
      "sigunguCode": 1,
      "mapx": 127.07508087158203,
      "mapy": 37.47760009765625,
      "title": "불국사",
      "firstImage": "http://tong.visitkorea.or.kr/cms/resource/58/1567758_image2_1.jpg",
      "addr": "서울특별시 강남구 광평로10길 30-71",
      "tel": "",
      "zipcode": "06359"
    },
    {
      "contentId": 2559938,
      "contentTypeId": 12,
      "areaCode": 1,
      "sigunguCode": 1,
      "mapx": 127.05944061279297,
      "mapy": 37.511714935302734,
      "title": "브이알존 엑스 코엑스 직영점",
      "firstImage": "http://tong.visitkorea.or.kr/cms/resource/26/2559926_image2_1.jpg",
      "addr": "서울특별시 강남구 영동대로 513",
      "tel": "",
      "zipcode": "06164"
    },
    {
      "contentId": 126525,
      "contentTypeId": 12,
      "areaCode": 1,
      "sigunguCode": 1,
      "mapx": 127.04718017578125,
      "mapy": 37.50741958618164,
      "title": "서울 선릉(성종과 정현왕후)과 정릉(중종) [유네스코 세계문화유산]",
      "firstImage": "",
      "addr": "서울특별시 강남구 선릉로100길 1",
      "tel": "",
      "zipcode": "06153"
    },
    {
      "contentId": 2660725,
      "contentTypeId": 12,
      "areaCode": 1,
      "sigunguCode": 1,
      "mapx": 127.0354995727539,
      "mapy": 37.52360916137695,
      "title": "설화수 플래그십 스토어",
      "firstImage": "",
      "addr": "서울특별시 강남구 도산대로45길 18",
      "tel": "",
      "zipcode": "06021"
    },
    {
      "contentId": 2646372,
      "contentTypeId": 12,
      "areaCode": 1,
      "sigunguCode": 1,
      "mapx": 127.03312683105469,
      "mapy": 37.508296966552734,
      "title": "스파 도향",
      "firstImage": "http://tong.visitkorea.or.kr/cms/resource/67/2646367_image2_1.bmp",
      "addr": "서울특별시 강남구 논현로 611",
      "tel": "",
      "zipcode": "06122"
    },
    {
      "contentId": 2946400,
      "contentTypeId": 12,
      "areaCode": 1,
      "sigunguCode": 1,
      "mapx": 127.0376968383789,
      "mapy": 37.525428771972656,
      "title": "신꼼꼼",
      "firstImage": "http://tong.visitkorea.or.kr/cms/resource/71/2947671_image2_1.jpg",
      "addr": "서울특별시 강남구 신사동 656-7",
      "tel": "",
      "zipcode": "06019"
    },
    {
      "contentId": 2752552,
      "contentTypeId": 12,
      "areaCode": 1,
      "sigunguCode": 1,
      "mapx": 127.02127838134766,
      "mapy": 37.5268440246582,
      "title": "신사공원",
      "firstImage": "",
      "addr": "서울특별시 강남구 논현로189길 57",
      "tel": "",
      "zipcode": "06000"
    },
    {
      "contentId": 987720,
      "contentTypeId": 12,
      "areaCode": 1,
      "sigunguCode": 1,
      "mapx": 127.02275085449219,
      "mapy": 37.52153396606445,
      "title": "신사동 가로수길",
      "firstImage": "http://tong.visitkorea.or.kr/cms/resource/42/2658442_image2_1.jpg",
      "addr": "서울특별시 강남구 신사동 일대",
      "tel": "",
      "zipcode": "06028"
    },
    {
      "contentId": 126823,
      "contentTypeId": 12,
      "areaCode": 1,
      "sigunguCode": 1,
      "mapx": 127.03889465332031,
      "mapy": 37.526878356933594,
      "title": "압구정 로데오거리",
      "firstImage": "http://tong.visitkorea.or.kr/cms/resource/70/2024970_image2_1.jpg",
      "addr": "서울특별시 강남구 압구정동",
      "tel": "",
      "zipcode": "06017"
    },
    {
      "contentId": 2946231,
      "contentTypeId": 12,
      "areaCode": 1,
      "sigunguCode": 1,
      "mapx": 127.04269409179688,
      "mapy": 37.52429962158203,
      "title": "에이바이봄",
      "firstImage": "http://tong.visitkorea.or.kr/cms/resource/87/2947687_image2_1.jpg",
      "addr": "서울특별시 강남구 청담동 91-6 에이바이봄",
      "tel": "",
      "zipcode": "06016"
    },
    {
      "contentId": 2592885,
      "contentTypeId": 12,
      "areaCode": 1,
      "sigunguCode": 1,
      "mapx": 127.0232162475586,
      "mapy": 37.52093505859375,
      "title": "엘크레",
      "firstImage": "http://tong.visitkorea.or.kr/cms/resource/76/2592876_image2_1.bmp",
      "addr": "서울특별시 강남구 도산대로15길 41",
      "tel": "",
      "zipcode": "06033"
    },
    {
      "contentId": 2752545,
      "contentTypeId": 12,
      "areaCode": 1,
      "sigunguCode": 1,
      "mapx": 127.03630065917969,
      "mapy": 37.49765396118164,
      "title": "역삼개나리공원",
      "firstImage": "",
      "addr": "서울특별시 강남구 논현로79길 24",
      "tel": "",
      "zipcode": "06237"
    },
    {
      "contentId": 2733864,
      "contentTypeId": 12,
      "areaCode": 1,
      "sigunguCode": 1,
      "mapx": 127.04180145263672,
      "mapy": 37.500545501708984,
      "title": "역삼동성당",
      "firstImage": "http://tong.visitkorea.or.kr/cms/resource/67/2779567_image2_1.jpg",
      "addr": "서울특별시 강남구 언주로85길 23-11",
      "tel": "",
      "zipcode": "06222"
    },
    {
      "contentId": 2751890,
      "contentTypeId": 12,
      "areaCode": 1,
      "sigunguCode": 1,
      "mapx": 127.10047912597656,
      "mapy": 37.46811294555664,
      "title": "은곡마을공원",
      "firstImage": "",
      "addr": "서울 강남구 세곡동 369-3",
      "tel": "",
      "zipcode": ""
    },
    {
      "contentId": 2754732,
      "contentTypeId": 12,
      "areaCode": 1,
      "sigunguCode": 1,
      "mapx": 127.10628509521484,
      "mapy": 37.47307586669922,
      "title": "율현공원",
      "firstImage": "",
      "addr": "서울특별시 강남구 밤고개로24길 24",
      "tel": "",
      "zipcode": "06377"
    },
    {
      "contentId": 2713582,
      "contentTypeId": 12,
      "areaCode": 1,
      "sigunguCode": 1,
      "mapx": 127.02680969238281,
      "mapy": 37.500640869140625,
      "title": "일상비일상의틈",
      "firstImage": "http://tong.visitkorea.or.kr/cms/resource/82/2713482_image2_1.jpg",
      "addr": "서울특별시 강남구 강남대로 426",
      "tel": "",
      "zipcode": "06129"
    },
    {
      "contentId": 2773291,
      "contentTypeId": 12,
      "areaCode": 1,
      "sigunguCode": 1,
      "mapx": 127.08453369140625,
      "mapy": 37.49146270751953,
      "title": "일원에코파크",
      "firstImage": "http://tong.visitkorea.or.kr/cms/resource/92/2778992_image2_1.jpg",
      "addr": "서울특별시 강남구 양재대로41길 24",
      "tel": "",
      "zipcode": "06343"
    },
    {
      "contentId": 2759613,
      "contentTypeId": 12,
      "areaCode": 1,
      "sigunguCode": 1,
      "mapx": 127.08084106445312,
      "mapy": 37.48072052001953,
      "title": "일원장미공원",
      "firstImage": "",
      "addr": "서울특별시 강남구 광평로10길 28",
      "tel": "",
      "zipcode": "06359"
    },
    {
      "contentId": 753954,
      "contentTypeId": 12,
      "areaCode": 1,
      "sigunguCode": 1,
      "mapx": 127.09303283691406,
      "mapy": 37.48692321777344,
      "title": "전주이씨광평대군파묘역",
      "firstImage": "http://tong.visitkorea.or.kr/cms/resource/09/755409_image2_1.jpg",
      "addr": "서울특별시 강남구 광평로31길 20",
      "tel": "",
      "zipcode": "06353"
    },
    {
      "contentId": 127269,
      "contentTypeId": 12,
      "areaCode": 1,
      "sigunguCode": 1,
      "mapx": 127.05266571044922,
      "mapy": 37.521156311035156,
      "title": "청담공원",
      "firstImage": "http://tong.visitkorea.or.kr/cms/resource/00/204200_image2_1.jpg",
      "addr": "서울특별시 강남구 영동대로131길 26",
      "tel": "",
      "zipcode": "06073"
    },
    {
      "contentId": 1310950,
      "contentTypeId": 12,
      "areaCode": 1,
      "sigunguCode": 1,
      "mapx": 127.04576110839844,
      "mapy": 37.52590560913086,
      "title": "청담패션거리",
      "firstImage": "http://tong.visitkorea.or.kr/cms/resource/82/2728682_image2_1.jpg",
      "addr": "서울특별시 강남구 청담동",
      "tel": "",
      "zipcode": "06015"
    },
    {
      "contentId": 2759626,
      "contentTypeId": 12,
      "areaCode": 1,
      "sigunguCode": 1,
      "mapx": 127.05944061279297,
      "mapy": 37.511714935302734,
      "title": "코엑스동측광장",
      "firstImage": "",
      "addr": "서울특별시 강남구 영동대로 513",
      "tel": "",
      "zipcode": "06164"
    },
    {
      "contentId": 814181,
      "contentTypeId": 12,
      "areaCode": 1,
      "sigunguCode": 1,
      "mapx": 127.1036148071289,
      "mapy": 37.49312973022461,
      "title": "탄천",
      "firstImage": "http://tong.visitkorea.or.kr/cms/resource/81/1837981_image2_1.jpg",
      "addr": "서울 강남구 율현동",
      "tel": "",
      "zipcode": "135-210,1"
    },
    {
      "contentId": 2754735,
      "contentTypeId": 12,
      "areaCode": 1,
      "sigunguCode": 1,
      "mapx": 127.02371978759766,
      "mapy": 37.51560974121094,
      "title": "학동공원",
      "firstImage": "",
      "addr": "서울특별시 강남구 논현동 279-75",
      "tel": "",
      "zipcode": ""
    },
    {
      "contentId": 2754738,
      "contentTypeId": 12,
      "areaCode": 1,
      "sigunguCode": 1,
      "mapx": 127.07881164550781,
      "mapy": 37.48125457763672,
      "title": "한솔공원",
      "firstImage": "",
      "addr": "서울특별시 강남구 광평로10길 14-17",
      "tel": "",
      "zipcode": "06359"
    },
    {
      "contentId": 2946112,
      "contentTypeId": 12,
      "areaCode": 1,
      "sigunguCode": 1,
      "mapx": 127.03795623779297,
      "mapy": 37.52615737915039,
      "title": "향기억",
      "firstImage": "http://tong.visitkorea.or.kr/cms/resource/98/2947498_image2_1.jpg",
      "addr": "서울특별시 강남구 신사동 657-19",
      "tel": "",
      "zipcode": "06018"
    },
    {
      "contentId": 2614315,
      "contentTypeId": 12,
      "areaCode": 1,
      "sigunguCode": 1,
      "mapx": 127.03302764892578,
      "mapy": 37.52177047729492,
      "title": "AHC스파",
      "firstImage": "http://tong.visitkorea.or.kr/cms/resource/05/2614305_image2_1.bmp",
      "addr": "서울특별시 강남구 도산대로 237",
      "tel": "",
      "zipcode": "06026"
    },
    {
      "contentId": 2660731,
      "contentTypeId": 12,
      "areaCode": 1,
      "sigunguCode": 1,
      "mapx": 127.06534576416016,
      "mapy": 37.50663757324219,
      "title": "SPA 1899 동인비",
      "firstImage": "",
      "addr": "서울특별시 강남구 영동대로 416",
      "tel": "",
      "zipcode": "06176"
    },

    {
      "contentId": 2715601,
      "contentTypeId": 12,
      "areaCode": 6,
      "sigunguCode": 1,
      "mapx": 128.8169403076172,
      "mapy": 35.02296447753906,
      "title": "가덕도",
      "firstImage": "http://tong.visitkorea.or.kr/cms/resource/61/2716261_image2_1.jpg",
      "addr": "부산광역시 강서구 천성동 308-2",
      "tel": "",
      "zipcode": ""
    },
    {
      "contentId": 129156,
      "contentTypeId": 12,
      "areaCode": 6,
      "sigunguCode": 1,
      "mapx": 128.82958984375,
      "mapy": 35.000648498535156,
      "title": "가덕도 등대",
      "firstImage": "http://tong.visitkorea.or.kr/cms/resource/88/1982388_image2_1.jpg",
      "addr": "부산광역시 강서구 외양포로 10",
      "tel": "",
      "zipcode": "46771"
    },
    {
      "contentId": 2726843,
      "contentTypeId": 12,
      "areaCode": 6,
      "sigunguCode": 1,
      "mapx": 128.82167053222656,
      "mapy": 35.03175354003906,
      "title": "가덕도 연대봉",
      "firstImage": "",
      "addr": "부산광역시 강서구 천성동",
      "tel": "",
      "zipcode": ""
    },
    {
      "contentId": 2789460,
      "contentTypeId": 12,
      "areaCode": 6,
      "sigunguCode": 1,
      "mapx": 128.8274688720703,
      "mapy": 35.013309478759766,
      "title": "가덕도대항인공동굴",
      "firstImage": "http://tong.visitkorea.or.kr/cms/resource/67/2800367_image2_1.jpg",
      "addr": "부산광역시 강서구 대항동 393-9",
      "tel": "",
      "zipcode": "46771"
    },
    {
      "contentId": 2782772,
      "contentTypeId": 12,
      "areaCode": 6,
      "sigunguCode": 1,
      "mapx": 128.80963134765625,
      "mapy": 35.0230598449707,
      "title": "가덕해양파크휴게소",
      "firstImage": "http://tong.visitkorea.or.kr/cms/resource/60/2793060_image2_1.jpg",
      "addr": "부산광역시 강서구 거가대로 2571",
      "tel": "",
      "zipcode": "46770"
    },
    {
      "contentId": 2867934,
      "contentTypeId": 12,
      "areaCode": 6,
      "sigunguCode": 1,
      "mapx": 128.88600158691406,
      "mapy": 35.15431594848633,
      "title": "녹산고향동산",
      "firstImage": "http://tong.visitkorea.or.kr/cms/resource/14/2867914_image2_1.JPG",
      "addr": "부산광역시 강서구 범방4로 132",
      "tel": "",
      "zipcode": "46727"
    },
    {
      "contentId": 2487925,
      "contentTypeId": 12,
      "areaCode": 6,
      "sigunguCode": 1,
      "mapx": 128.9845733642578,
      "mapy": 35.20987319946289,
      "title": "대저생태공원",
      "firstImage": "",
      "addr": "부산광역시 강서구 공항로 1246",
      "tel": "",
      "zipcode": "46703"
    },
    {
      "contentId": 2748838,
      "contentTypeId": 12,
      "areaCode": 6,
      "sigunguCode": 1,
      "mapx": 128.99241638183594,
      "mapy": 35.23009490966797,
      "title": "대저수문 생태공원",
      "firstImage": "",
      "addr": "부산 강서구 대저1동 279-9",
      "tel": "",
      "zipcode": ""
    },
    {
      "contentId": 128564,
      "contentTypeId": 12,
      "areaCode": 6,
      "sigunguCode": 1,
      "mapx": 128.82769775390625,
      "mapy": 35.011722564697266,
      "title": "대항 어촌체험 휴양마을",
      "firstImage": "http://tong.visitkorea.or.kr/cms/resource/26/2607126_image2_1.bmp",
      "addr": "부산광역시 강서구 가덕해안로1207번길 9-2",
      "tel": "",
      "zipcode": "46771"
    },
    {
      "contentId": 2785960,
      "contentTypeId": 12,
      "areaCode": 6,
      "sigunguCode": 1,
      "mapx": 128.8260040283203,
      "mapy": 35.0123291015625,
      "title": "대항선착장",
      "firstImage": "http://tong.visitkorea.or.kr/cms/resource/06/2800406_image2_1.jpg",
      "addr": "부산광역시 강서구 대항동 393-3",
      "tel": "",
      "zipcode": "46771"
    },
    {
      "contentId": 2744553,
      "contentTypeId": 12,
      "areaCode": 6,
      "sigunguCode": 1,
      "mapx": 128.8251190185547,
      "mapy": 35.01715850830078,
      "title": "대항전망대",
      "firstImage": "http://tong.visitkorea.or.kr/cms/resource/91/2744891_image2_1.jpg",
      "addr": "부산광역시 강서구 대항동 산1-4",
      "tel": "",
      "zipcode": "46771"
    },
    {
      "contentId": 2791383,
      "contentTypeId": 12,
      "areaCode": 6,
      "sigunguCode": 1,
      "mapx": 128.92205810546875,
      "mapy": 35.136409759521484,
      "title": "델타루 (에코델타시티 전망대)",
      "firstImage": "http://tong.visitkorea.or.kr/cms/resource/87/2791387_image2_1.JPG",
      "addr": "부산광역시 강서구 대저2동 5438-3",
      "tel": "",
      "zipcode": ""
    },
    {
      "contentId": 250424,
      "contentTypeId": 12,
      "areaCode": 6,
      "sigunguCode": 1,
      "mapx": 128.8209228515625,
      "mapy": 35.09672546386719,
      "title": "망산도·유주암·유주비각",
      "firstImage": "",
      "addr": "부산광역시 강서구 송정동",
      "tel": "",
      "zipcode": "51610"
    },
    {
      "contentId": 2487927,
      "contentTypeId": 12,
      "areaCode": 6,
      "sigunguCode": 1,
      "mapx": 128.95492553710938,
      "mapy": 35.152347564697266,
      "title": "맥도생태공원",
      "firstImage": "http://tong.visitkorea.or.kr/cms/resource/23/2488023_image2_1.JPG",
      "addr": "부산광역시 강서구 공항로 500",
      "tel": "",
      "zipcode": "46723"
    },
    {
      "contentId": 2789340,
      "contentTypeId": 12,
      "areaCode": 6,
      "sigunguCode": 1,
      "mapx": 128.9066619873047,
      "mapy": 35.087032318115234,
      "title": "명지동근린공원",
      "firstImage": "",
      "addr": "부산광역시 강서구 명지오션시티10로 95",
      "tel": "",
      "zipcode": "46763"
    },
    {
      "contentId": 2732397,
      "contentTypeId": 12,
      "areaCode": 6,
      "sigunguCode": 1,
      "mapx": 128.9797821044922,
      "mapy": 35.20939254760742,
      "title": "물빛색스튜디오",
      "firstImage": "",
      "addr": "부산광역시 강서구 체육공원로6번길 139-28",
      "tel": "",
      "zipcode": "46703"
    },
    {
      "contentId": 2789334,
      "contentTypeId": 12,
      "areaCode": 6,
      "sigunguCode": 1,
      "mapx": 128.84324645996094,
      "mapy": 35.0881462097168,
      "title": "보람공원",
      "firstImage": "",
      "addr": "부산광역시 강서구 녹산산단262로14번길 20",
      "tel": "",
      "zipcode": "46757"
    },
    {
      "contentId": 2788828,
      "contentTypeId": 12,
      "areaCode": 6,
      "sigunguCode": 1,
      "mapx": 128.8707733154297,
      "mapy": 35.081912994384766,
      "title": "신호공원",
      "firstImage": "",
      "addr": "부산 강서구 신호동 315-1",
      "tel": "",
      "zipcode": ""
    },
    {
      "contentId": 2788831,
      "contentTypeId": 12,
      "areaCode": 6,
      "sigunguCode": 1,
      "mapx": 128.83294677734375,
      "mapy": 35.03059768676758,
      "title": "연태봉",
      "firstImage": "",
      "addr": "부산광역시 강서구 천성동 산 6-98",
      "tel": "",
      "zipcode": ""
    },
    {
      "contentId": 2605602,
      "contentTypeId": 12,
      "areaCode": 6,
      "sigunguCode": 1,
      "mapx": 128.8251953125,
      "mapy": 35.005638122558594,
      "title": "외양포 포진지",
      "firstImage": "http://tong.visitkorea.or.kr/cms/resource/77/2603377_image2_1.jpg",
      "addr": "부산광역시 강서구 대항동",
      "tel": "",
      "zipcode": "46771"
    },
    {
      "contentId": 2788826,
      "contentTypeId": 12,
      "areaCode": 6,
      "sigunguCode": 1,
      "mapx": 128.83294677734375,
      "mapy": 35.03059768676758,
      "title": "외양포항",
      "firstImage": "",
      "addr": "부산광역시 강서구 천성동 산 6-98",
      "tel": "",
      "zipcode": ""
    },
    {
      "contentId": 2788827,
      "contentTypeId": 12,
      "areaCode": 6,
      "sigunguCode": 1,
      "mapx": 128.92703247070312,
      "mapy": 35.101661682128906,
      "title": "울림공원",
      "firstImage": "",
      "addr": "부산 강서구 명지동 3392",
      "tel": "",
      "zipcode": ""
    },
    {
      "contentId": 2744560,
      "contentTypeId": 12,
      "areaCode": 6,
      "sigunguCode": 1,
      "mapx": 128.8148956298828,
      "mapy": 35.02821731567383,
      "title": "천성항 방파제등대",
      "firstImage": "http://tong.visitkorea.or.kr/cms/resource/03/2744903_image2_1.jpg",
      "addr": "부산광역시 강서구 천성동 646-2",
      "tel": "",
      "zipcode": "46770"
    },
    {
      "contentId": 482123,
      "contentTypeId": 12,
      "areaCode": 6,
      "sigunguCode": 1,
      "mapx": 128.91908264160156,
      "mapy": 35.117759704589844,
      "title": "청량사(부산)",
      "firstImage": "http://tong.visitkorea.or.kr/cms/resource/59/1152559_image2_1.jpg",
      "addr": "부산광역시 강서구 제도로 29",
      "tel": "",
      "zipcode": "46717"
    },
    {
      "contentId": 2791357,
      "contentTypeId": 12,
      "areaCode": 6,
      "sigunguCode": 1,
      "mapx": 128.87916564941406,
      "mapy": 35.105655670166016,
      "title": "화전공원",
      "firstImage": "http://tong.visitkorea.or.kr/cms/resource/70/2791370_image2_1.jpg",
      "addr": "부산광역시 강서구 화전산단5로 84",
      "tel": "",
      "zipcode": "46738"
    }
  ]
}
